QIANFAN-65              
1 62795U 25016L   26198.95789757  .00000094  00000+0  12699-3 0  9998
2 62795  88.9696  80.4966 0016025  75.9226 284.3705 13.51030467 76579
QIANFAN-66              
1 62796U 25016M   26198.91275359  .00000079  00000+0  10281-3 0  9991
2 62796  88.9715  80.5141 0017111  72.1726 288.1290 13.51023590 76614
QIANFAN-67              
1 62797U 25016N   26198.91687429  .00000073  00000+0  94113-4 0  9998
2 62797  88.9706  80.5180 0017096  78.2285 282.0783 13.51012219 76589
QIANFAN-68              
1 62798U 25016P   26198.90845439  .00000072  00000+0  92724-4 0  9990
2 62798  88.9709  80.5717 0017168  76.3555 283.9507 13.51024941 76565
QIANFAN-69              
1 62799U 25016Q   26198.92491465  .00000092  00000+0  12345-3 0  9991
2 62799  88.9688  80.3931 0017906  77.5833 282.7320 13.51018824 76608
QIANFAN-70              
1 62800U 25016R   26198.86738648  .00000083  00000+0  10943-3 0  9996
2 62800  88.9709  80.5830 0017475  69.2127 291.0894 13.51017190 76558
QIANFAN-71              
1 62801U 25016S   26198.86339626  .00000090  00000+0  12087-3 0  9999
2 62801  88.9703  80.5497 0017813  80.8908 279.4258 13.51021189 76551
QIANFAN-72              
1 62802U 25016T   26198.87969011  .00000090  00000+0  11985-3 0  9994
2 62802  88.9693  80.5402 0021052  87.3888 272.9672 13.51014684 76544
QIANFAN-73              
1 63159U 25046A   26198.90667065  .00000124  00000+0  17256-3 0  9996
2 63159  88.9723 297.4920 0014347 207.3735 152.6661 13.51015448 76734
QIANFAN-74              
1 63160U 25046B   26198.89038851  .00000117  00000+0  16184-3 0  9992
2 63160  88.9724 297.3834 0002540 105.0304 255.1128 13.51023288 76792
QIANFAN-75              
1 63161U 25046C   26198.87798452  .00000100  00000+0  13560-3 0  9998
2 63161  88.9725 297.6213 0015327 211.3075 148.7165 13.51015711 76667
QIANFAN-76              
1 63162U 25046D   26198.87382152  .00000125  00000+0  17553-3 0  9998
2 63162  88.9725 297.6016 0012854 210.3467 149.6941 13.51014757 76677
QIANFAN-77              
1 63163U 25046E   26198.91438112  .00000226  00000+0  15459-3 0  9997
2 63163  88.9727 293.8156 0017246 120.1400 240.1489 13.96222807 78759
QIANFAN-78              
1 63164U 25046F   26198.91502519  .00000113  00000+0  15593-3 0  9995
2 63164  88.9724 297.4593 0014144 213.2572 146.7691 13.51010023 76750
QIANFAN-79              
1 63165U 25046G   26198.86970041  .00000115  00000+0  16003-3 0  9998
2 63165  88.9727 297.5793 0013992 211.7556 148.2753 13.51020127 76697
QIANFAN-80              
1 63166U 25046H   26198.88625536  .00000117  00000+0  16235-3 0  9996
2 63166  88.9724 297.2786 0012677 215.6587 144.3718 13.51017195 76857
