{"fetched_at":"2026-07-18T06:27:49.000Z","source":"https://celestrak.org/NORAD/elements/gp.php?GROUP=qianfan&FORMAT=JSON","constellation":"qianfan","records":[{"OBJECT_NAME":"QIANFAN-65","OBJECT_ID":"2025-016L","EPOCH":"2026-07-17T22:59:22.350048","CLASSIFICATION_TYPE":"U","MEAN_MOTION":13.51030467,"ECCENTRICITY":0.00160257,"INCLINATION":88.9696,"RA_OF_ASC_NODE":80.4966,"ARG_OF_PERICENTER":75.9226,"MEAN_ANOMALY":284.3705,"EPHEMERIS_TYPE":0,"NORAD_CAT_ID":62795,"ELEMENT_SET_NO":999,"REV_AT_EPOCH":7657,"BSTAR":0.00012698997,"MEAN_MOTION_DOT":9.4e-7,"MEAN_MOTION_DDOT":0},{"OBJECT_NAME":"QIANFAN-66","OBJECT_ID":"2025-016M","EPOCH":"2026-07-17T21:54:21.910176","CLASSIFICATION_TYPE":"U","MEAN_MOTION":13.5102359,"ECCENTRICITY":0.0017111,"INCLINATION":88.9715,"RA_OF_ASC_NODE":80.5141,"ARG_OF_PERICENTER":72.1726,"MEAN_ANOMALY":288.129,"EPHEMERIS_TYPE":0,"NORAD_CAT_ID":62796,"ELEMENT_SET_NO":999,"REV_AT_EPOCH":7661,"BSTAR":0.00010281021,"MEAN_MOTION_DOT":7.9e-7,"MEAN_MOTION_DDOT":0},{"OBJECT_NAME":"QIANFAN-67","OBJECT_ID":"2025-016N","EPOCH":"2026-07-17T22:00:17.938656","CLASSIFICATION_TYPE":"U","MEAN_MOTION":13.51012219,"ECCENTRICITY":0.00170964,"INCLINATION":88.9706,"RA_OF_ASC_NODE":80.518,"ARG_OF_PERICENTER":78.2285,"MEAN_ANOMALY":282.0783,"EPHEMERIS_TYPE":0,"NORAD_CAT_ID":62797,"ELEMENT_SET_NO":999,"REV_AT_EPOCH":7658,"BSTAR":0.000094112879,"MEAN_MOTION_DOT":7.3e-7,"MEAN_MOTION_DDOT":0},{"OBJECT_NAME":"QIANFAN-68","OBJECT_ID":"2025-016P","EPOCH":"2026-07-17T21:48:10.459296","CLASSIFICATION_TYPE":"U","MEAN_MOTION":13.51024941,"ECCENTRICITY":0.00171688,"INCLINATION":88.9709,"RA_OF_ASC_NODE":80.5717,"ARG_OF_PERICENTER":76.3555,"MEAN_ANOMALY":283.9507,"EPHEMERIS_TYPE":0,"NORAD_CAT_ID":62798,"ELEMENT_SET_NO":999,"REV_AT_EPOCH":7656,"BSTAR":0.000092724219,"MEAN_MOTION_DOT":7.2e-7,"MEAN_MOTION_DDOT":0},{"OBJECT_NAME":"QIANFAN-69","OBJECT_ID":"2025-016Q","EPOCH":"2026-07-17T22:11:52.625760","CLASSIFICATION_TYPE":"U","MEAN_MOTION":13.51018824,"ECCENTRICITY":0.00179068,"INCLINATION":88.9688,"RA_OF_ASC_NODE":80.3931,"ARG_OF_PERICENTER":77.5833,"MEAN_ANOMALY":282.732,"EPHEMERIS_TYPE":0,"NORAD_CAT_ID":62799,"ELEMENT_SET_NO":999,"REV_AT_EPOCH":7660,"BSTAR":0.00012344719,"MEAN_MOTION_DOT":9.2e-7,"MEAN_MOTION_DDOT":0},{"OBJECT_NAME":"QIANFAN-70","OBJECT_ID":"2025-016R","EPOCH":"2026-07-17T20:49:02.191872","CLASSIFICATION_TYPE":"U","MEAN_MOTION":13.5101719,"ECCENTRICITY":0.00174757,"INCLINATION":88.9709,"RA_OF_ASC_NODE":80.583,"ARG_OF_PERICENTER":69.2127,"MEAN_ANOMALY":291.0894,"EPHEMERIS_TYPE":0,"NORAD_CAT_ID":62800,"ELEMENT_SET_NO":999,"REV_AT_EPOCH":7655,"BSTAR":0.00010942616,"MEAN_MOTION_DOT":8.3e-7,"MEAN_MOTION_DDOT":0},{"OBJECT_NAME":"QIANFAN-71","OBJECT_ID":"2025-016S","EPOCH":"2026-07-17T20:43:17.436864","CLASSIFICATION_TYPE":"U","MEAN_MOTION":13.51021189,"ECCENTRICITY":0.00178131,"INCLINATION":88.9703,"RA_OF_ASC_NODE":80.5497,"ARG_OF_PERICENTER":80.8908,"MEAN_ANOMALY":279.4258,"EPHEMERIS_TYPE":0,"NORAD_CAT_ID":62801,"ELEMENT_SET_NO":999,"REV_AT_EPOCH":7655,"BSTAR":0.00012086563,"MEAN_MOTION_DOT":9e-7,"MEAN_MOTION_DDOT":0},{"OBJECT_NAME":"QIANFAN-72","OBJECT_ID":"2025-016T","EPOCH":"2026-07-17T21:06:45.225504","CLASSIFICATION_TYPE":"U","MEAN_MOTION":13.51014684,"ECCENTRICITY":0.00210522,"INCLINATION":88.9693,"RA_OF_ASC_NODE":80.5402,"ARG_OF_PERICENTER":87.3888,"MEAN_ANOMALY":272.9672,"EPHEMERIS_TYPE":0,"NORAD_CAT_ID":62802,"ELEMENT_SET_NO":999,"REV_AT_EPOCH":7654,"BSTAR":0.00011985281,"MEAN_MOTION_DOT":9e-7,"MEAN_MOTION_DDOT":0},{"OBJECT_NAME":"QIANFAN-73","OBJECT_ID":"2025-046A","EPOCH":"2026-07-17T21:45:36.344160","CLASSIFICATION_TYPE":"U","MEAN_MOTION":13.51015448,"ECCENTRICITY":0.00143473,"INCLINATION":88.9723,"RA_OF_ASC_NODE":297.492,"ARG_OF_PERICENTER":207.3735,"MEAN_ANOMALY":152.6661,"EPHEMERIS_TYPE":0,"NORAD_CAT_ID":63159,"ELEMENT_SET_NO":999,"REV_AT_EPOCH":7673,"BSTAR":0.0001725593,"MEAN_MOTION_DOT":0.00000124,"MEAN_MOTION_DDOT":0},{"OBJECT_NAME":"QIANFAN-74","OBJECT_ID":"2025-046B","EPOCH":"2026-07-17T21:22:09.567264","CLASSIFICATION_TYPE":"U","MEAN_MOTION":13.51023288,"ECCENTRICITY":0.00025408,"INCLINATION":88.9724,"RA_OF_ASC_NODE":297.3834,"ARG_OF_PERICENTER":105.0304,"MEAN_ANOMALY":255.1128,"EPHEMERIS_TYPE":0,"NORAD_CAT_ID":63160,"ELEMENT_SET_NO":999,"REV_AT_EPOCH":7679,"BSTAR":0.00016184185,"MEAN_MOTION_DOT":0.00000117,"MEAN_MOTION_DDOT":0},{"OBJECT_NAME":"QIANFAN-75","OBJECT_ID":"2025-046C","EPOCH":"2026-07-17T21:04:17.862528","CLASSIFICATION_TYPE":"U","MEAN_MOTION":13.51015711,"ECCENTRICITY":0.00153278,"INCLINATION":88.9725,"RA_OF_ASC_NODE":297.6213,"ARG_OF_PERICENTER":211.3075,"MEAN_ANOMALY":148.7165,"EPHEMERIS_TYPE":0,"NORAD_CAT_ID":63161,"ELEMENT_SET_NO":999,"REV_AT_EPOCH":7666,"BSTAR":0.0001356013,"MEAN_MOTION_DOT":0.000001,"MEAN_MOTION_DDOT":0},{"OBJECT_NAME":"QIANFAN-76","OBJECT_ID":"2025-046D","EPOCH":"2026-07-17T20:58:18.179328","CLASSIFICATION_TYPE":"U","MEAN_MOTION":13.51014757,"ECCENTRICITY":0.00128545,"INCLINATION":88.9725,"RA_OF_ASC_NODE":297.6016,"ARG_OF_PERICENTER":210.3467,"MEAN_ANOMALY":149.6941,"EPHEMERIS_TYPE":0,"NORAD_CAT_ID":63162,"ELEMENT_SET_NO":999,"REV_AT_EPOCH":7667,"BSTAR":0.00017553056,"MEAN_MOTION_DOT":0.00000125,"MEAN_MOTION_DDOT":0},{"OBJECT_NAME":"QIANFAN-77","OBJECT_ID":"2025-046E","EPOCH":"2026-07-17T21:56:42.528768","CLASSIFICATION_TYPE":"U","MEAN_MOTION":13.96222807,"ECCENTRICITY":0.00172464,"INCLINATION":88.9727,"RA_OF_ASC_NODE":293.8156,"ARG_OF_PERICENTER":120.14,"MEAN_ANOMALY":240.1489,"EPHEMERIS_TYPE":0,"NORAD_CAT_ID":63163,"ELEMENT_SET_NO":999,"REV_AT_EPOCH":7875,"BSTAR":0.00015459346,"MEAN_MOTION_DOT":0.00000226,"MEAN_MOTION_DDOT":0},{"OBJECT_NAME":"QIANFAN-78","OBJECT_ID":"2025-046F","EPOCH":"2026-07-17T21:57:38.176416","CLASSIFICATION_TYPE":"U","MEAN_MOTION":13.51010023,"ECCENTRICITY":0.00141443,"INCLINATION":88.9724,"RA_OF_ASC_NODE":297.4593,"ARG_OF_PERICENTER":213.2572,"MEAN_ANOMALY":146.7691,"EPHEMERIS_TYPE":0,"NORAD_CAT_ID":63164,"ELEMENT_SET_NO":999,"REV_AT_EPOCH":7675,"BSTAR":0.00015593241,"MEAN_MOTION_DOT":0.00000113,"MEAN_MOTION_DDOT":0},{"OBJECT_NAME":"QIANFAN-79","OBJECT_ID":"2025-046G","EPOCH":"2026-07-17T20:52:22.115424","CLASSIFICATION_TYPE":"U","MEAN_MOTION":13.51020127,"ECCENTRICITY":0.00139928,"INCLINATION":88.9727,"RA_OF_ASC_NODE":297.5793,"ARG_OF_PERICENTER":211.7556,"MEAN_ANOMALY":148.2753,"EPHEMERIS_TYPE":0,"NORAD_CAT_ID":63165,"ELEMENT_SET_NO":999,"REV_AT_EPOCH":7669,"BSTAR":0.00016002642,"MEAN_MOTION_DOT":0.00000115,"MEAN_MOTION_DDOT":0},{"OBJECT_NAME":"QIANFAN-80","OBJECT_ID":"2025-046H","EPOCH":"2026-07-17T21:16:12.463104","CLASSIFICATION_TYPE":"U","MEAN_MOTION":13.51017195,"ECCENTRICITY":0.0012677,"INCLINATION":88.9724,"RA_OF_ASC_NODE":297.2786,"ARG_OF_PERICENTER":215.6587,"MEAN_ANOMALY":144.3718,"EPHEMERIS_TYPE":0,"NORAD_CAT_ID":63166,"ELEMENT_SET_NO":999,"REV_AT_EPOCH":7685,"BSTAR":0.00016234549,"MEAN_MOTION_DOT":0.00000117,"MEAN_MOTION_DDOT":0}]}
